start=new Date('2022-10-18T00:00:00.000Z').valueOf();
sats=[{"MEAN_MOTION":"15.73235476","APOAPSIS":"350.431","PERIOD":"91.531","LAUNCH_DATE":"2022-09-19","MEAN_ELEMENT_THEORY":"SGP4","RCS_SIZE":"LARGE","PERIAPSIS":"348.887","NORAD_CAT_ID":"53819","MEAN_MOTION_DDOT":"0.0000000000000","TLE_LINE2":"2 53819  53.2152 115.9142 0001148  54.5825  81.5058 15.73235476  1306","GP_ID":"215451964","MEAN_ANOMALY":"81.5058","REF_FRAME":"TEME","OBJECT_ID":"2022-114B","SEMIMAJOR_AXIS":"6727.794","RA_OF_ASC_NODE":"115.9142","DECAY_DATE":null,"CENTER_NAME":"EARTH","FILE":"3620294","TIME_SYSTEM":"UTC","EPHEMERIS_TYPE":"0","MEAN_MOTION_DOT":"-0.00048789","SITE":"AFETR","COUNTRY_CODE":"US","TLE_LINE1":"1 53819U 22114B   22290.91667824 -.00048789  00000-0 -34470-3 0  9993","BSTAR":"-0.00034470000000","ARG_OF_PERICENTER":"54.5825","INCLINATION":"53.2152","ECCENTRICITY":"0.00011480","EPOCH":"2022-10-17T22:00:00.999936","ELEMENT_SET_NO":"999","OBJECT_TYPE":"PAYLOAD","CLASSIFICATION_TYPE":"U","OBJECT_NAME":"STARLINK-4738","REV_AT_EPOCH":"130"},{"ARG_OF_PERICENTER":"91.5071","ECCENTRICITY":"0.00011110","ELEMENT_SET_NO":"999","EPOCH":"2022-10-17T22:00:00.999936","INCLINATION":"53.2138","TLE_LINE1":"1 53820U 22114C   22290.91667824 -.00005499  00000-0 -34767-4 0  9996","COUNTRY_CODE":"US","BSTAR":"-0.00003476700000","SITE":"AFETR","MEAN_MOTION_DOT":"-0.00005499","FILE":"3620294","EPHEMERIS_TYPE":"0","CENTER_NAME":"EARTH","TIME_SYSTEM":"UTC","DECAY_DATE":null,"SEMIMAJOR_AXIS":"6727.855","RA_OF_ASC_NODE":"115.9193","REV_AT_EPOCH":"130","OBJECT_NAME":"STARLINK-4758","CLASSIFICATION_TYPE":"U","OBJECT_TYPE":"PAYLOAD","MEAN_ELEMENT_THEORY":"SGP4","RCS_SIZE":"LARGE","LAUNCH_DATE":"2022-09-19","PERIOD":"91.532","MEAN_MOTION":"15.73213984","APOAPSIS":"350.468","REF_FRAME":"TEME","OBJECT_ID":"2022-114C","MEAN_ANOMALY":"42.2243","TLE_LINE2":"2 53820  53.2138 115.9193 0001111  91.5071  42.2243 15.73213984  1302","GP_ID":"215452527","MEAN_MOTION_DDOT":"0.0000000000000","NORAD_CAT_ID":"53820","PERIAPSIS":"348.973"},{"CLASSIFICATION_TYPE":"U","OBJECT_TYPE":"PAYLOAD","REV_AT_EPOCH":"130","OBJECT_NAME":"STARLINK-4752","SITE":"AFETR","MEAN_MOTION_DOT":"-0.00002604","FILE":"3620294","EPHEMERIS_TYPE":"0","CENTER_NAME":"EARTH","TIME_SYSTEM":"UTC","DECAY_DATE":null,"RA_OF_ASC_NODE":"115.9173","SEMIMAJOR_AXIS":"6727.955","EPOCH":"2022-10-17T22:00:00.999936","INCLINATION":"53.2136","ECCENTRICITY":"0.00010350","ELEMENT_SET_NO":"999","ARG_OF_PERICENTER":"77.6656","BSTAR":"-0.00001416200000","COUNTRY_CODE":"US","TLE_LINE1":"1 53821U 22114D   22290.91667824 -.00002604  00000-0 -14162-4 0  9999","NORAD_CAT_ID":"53821","MEAN_MOTION_DDOT":"0.0000000000000","PERIAPSIS":"349.124","OBJECT_ID":"2022-114D","REF_FRAME":"TEME","MEAN_ANOMALY":"56.6905","GP_ID":"215451380","TLE_LINE2":"2 53821  53.2136 115.9173 0001035  77.6656  56.6905 15.73178895  1303","PERIOD":"91.534","APOAPSIS":"350.517","MEAN_MOTION":"15.73178895","RCS_SIZE":"LARGE","MEAN_ELEMENT_THEORY":"SGP4","LAUNCH_DATE":"2022-09-19"},{"LAUNCH_DATE":"2022-09-19","MEAN_ELEMENT_THEORY":"SGP4","RCS_SIZE":"LARGE","MEAN_MOTION":"15.73197239","APOAPSIS":"350.952","PERIOD":"91.533","MEAN_ANOMALY":"129.1441","TLE_LINE2":"2 53823  53.2157 114.3611 0001760  41.2440 129.1441 15.73197239  1305","GP_ID":"215452375","REF_FRAME":"TEME","OBJECT_ID":"2022-114F","PERIAPSIS":"348.584","NORAD_CAT_ID":"53823","MEAN_MOTION_DDOT":"0.0000000000000","TLE_LINE1":"1 53823U 22114F   22290.91667824 -.00014906  00000-0 -10198-3 0  9993","COUNTRY_CODE":"US","BSTAR":"-0.00010198000000","ARG_OF_PERICENTER":"41.2440","EPOCH":"2022-10-17T22:00:00.999936","ELEMENT_SET_NO":"999","INCLINATION":"53.2157","ECCENTRICITY":"0.00017600","DECAY_DATE":null,"SEMIMAJOR_AXIS":"6727.903","RA_OF_ASC_NODE":"114.3611","SITE":"AFETR","MEAN_MOTION_DOT":"-0.00014906","CENTER_NAME":"EARTH","FILE":"3620294","TIME_SYSTEM":"UTC","EPHEMERIS_TYPE":"0","OBJECT_NAME":"STARLINK-4748","REV_AT_EPOCH":"130","OBJECT_TYPE":"PAYLOAD","CLASSIFICATION_TYPE":"U"},{"REV_AT_EPOCH":"130","OBJECT_NAME":"STARLINK-4757","CLASSIFICATION_TYPE":"U","OBJECT_TYPE":"PAYLOAD","INCLINATION":"53.2152","EPOCH":"2022-10-17T22:00:00.999936","ECCENTRICITY":"0.00012700","ELEMENT_SET_NO":"999","ARG_OF_PERICENTER":"63.1828","BSTAR":"0.00005780500000","TLE_LINE1":"1 53824U 22114G   22290.91667824  .00007499  00000-0  57805-4 0  9998","COUNTRY_CODE":"US","FILE":"3620294","CENTER_NAME":"EARTH","TIME_SYSTEM":"UTC","EPHEMERIS_TYPE":"0","SITE":"AFETR","MEAN_MOTION_DOT":"0.00007499","RA_OF_ASC_NODE":"115.9203","SEMIMAJOR_AXIS":"6727.900","DECAY_DATE":null,"OBJECT_ID":"2022-114G","REF_FRAME":"TEME","GP_ID":"215451546","TLE_LINE2":"2 53824  53.2152 115.9203 0001270  63.1828  74.1038 15.73198188  1309","MEAN_ANOMALY":"74.1038","NORAD_CAT_ID":"53824","MEAN_MOTION_DDOT":"0.0000000000000","PERIAPSIS":"348.911","RCS_SIZE":"LARGE","MEAN_ELEMENT_THEORY":"SGP4","LAUNCH_DATE":"2022-09-19","PERIOD":"91.533","APOAPSIS":"350.620","MEAN_MOTION":"15.73198188"},{"PERIAPSIS":"348.917","MEAN_MOTION_DDOT":"0.0000000000000","NORAD_CAT_ID":"53825","MEAN_ANOMALY":"67.9532","TLE_LINE2":"2 53825  53.2138 115.9145 0001068  68.7399  67.9532 15.73243598  1303","GP_ID":"215452283","REF_FRAME":"TEME","OBJECT_ID":"2022-114H","MEAN_MOTION":"15.73243598","APOAPSIS":"350.354","PERIOD":"91.531","LAUNCH_DATE":"2022-09-19","MEAN_ELEMENT_THEORY":"SGP4","RCS_SIZE":"LARGE","OBJECT_TYPE":"PAYLOAD","CLASSIFICATION_TYPE":"U","OBJECT_NAME":"STARLINK-4751","REV_AT_EPOCH":"130","DECAY_DATE":null,"SEMIMAJOR_AXIS":"6727.771","RA_OF_ASC_NODE":"115.9145","MEAN_MOTION_DOT":"-0.00047857","SITE":"AFETR","EPHEMERIS_TYPE":"0","FILE":"3620294","CENTER_NAME":"EARTH","TIME_SYSTEM":"UTC","TLE_LINE1":"1 53825U 22114H   22290.91667824 -.00047857  00000-0 -33788-3 0  9996","COUNTRY_CODE":"US","BSTAR":"-0.00033788000000","ARG_OF_PERICENTER":"68.7399","ECCENTRICITY":"0.00010680","EPOCH":"2022-10-17T22:00:00.999936","INCLINATION":"53.2138","ELEMENT_SET_NO":"999"},{"FILE":"3620294","EPHEMERIS_TYPE":"0","CENTER_NAME":"EARTH","TIME_SYSTEM":"UTC","SITE":"AFETR","MEAN_MOTION_DOT":"0.00018170","SEMIMAJOR_AXIS":"6727.961","RA_OF_ASC_NODE":"115.9084","DECAY_DATE":null,"ARG_OF_PERICENTER":"105.8463","ECCENTRICITY":"0.00011560","EPOCH":"2022-10-17T22:00:00.999936","INCLINATION":"53.2139","ELEMENT_SET_NO":"999","COUNTRY_CODE":"US","TLE_LINE1":"1 53826U 22114J   22290.91667824  .00018170  00000-0  13373-3 0  9999","BSTAR":"0.00013373000000","CLASSIFICATION_TYPE":"U","OBJECT_TYPE":"PAYLOAD","REV_AT_EPOCH":"130","OBJECT_NAME":"STARLINK-4756","PERIOD":"91.535","MEAN_MOTION":"15.73176942","APOAPSIS":"350.604","MEAN_ELEMENT_THEORY":"SGP4","RCS_SIZE":"LARGE","LAUNCH_DATE":"2022-09-19","NORAD_CAT_ID":"53826","MEAN_MOTION_DDOT":"0.0000000000000","PERIAPSIS":"349.048","REF_FRAME":"TEME","OBJECT_ID":"2022-114J","TLE_LINE2":"2 53826  53.2139 115.9084 0001156 105.8463  33.9260 15.73176942  1309","GP_ID":"215451799","MEAN_ANOMALY":"33.9260"},{"CLASSIFICATION_TYPE":"U","OBJECT_TYPE":"PAYLOAD","REV_AT_EPOCH":"130","OBJECT_NAME":"STARLINK-4764","EPHEMERIS_TYPE":"0","FILE":"3620294","CENTER_NAME":"EARTH","TIME_SYSTEM":"UTC","MEAN_MOTION_DOT":"-0.00040141","SITE":"AFETR","RA_OF_ASC_NODE":"115.9106","SEMIMAJOR_AXIS":"6727.795","DECAY_DATE":null,"EPOCH":"2022-10-17T22:00:00.999936","ELEMENT_SET_NO":"999","ECCENTRICITY":"0.00015740","INCLINATION":"53.2136","ARG_OF_PERICENTER":"43.8057","BSTAR":"-0.00028251000000","COUNTRY_CODE":"US","TLE_LINE1":"1 53827U 22114K   22290.91667824 -.00040141  00000-0 -28251-3 0  9996","MEAN_MOTION_DDOT":"0.0000000000000","NORAD_CAT_ID":"53827","PERIAPSIS":"348.601","OBJECT_ID":"2022-114K","REF_FRAME":"TEME","GP_ID":"215452131","TLE_LINE2":"2 53827  53.2136 115.9106 0001574  43.8057  94.0657 15.73235310  1309","MEAN_ANOMALY":"94.0657","PERIOD":"91.531","APOAPSIS":"350.718","MEAN_MOTION":"15.73235310","RCS_SIZE":"LARGE","MEAN_ELEMENT_THEORY":"SGP4","LAUNCH_DATE":"2022-09-19"},{"SEMIMAJOR_AXIS":"6727.849","RA_OF_ASC_NODE":"115.9065","DECAY_DATE":null,"FILE":"3620294","EPHEMERIS_TYPE":"0","TIME_SYSTEM":"UTC","CENTER_NAME":"EARTH","SITE":"AFETR","MEAN_MOTION_DOT":"-0.00003585","COUNTRY_CODE":"US","TLE_LINE1":"1 53828U 22114L   22290.91667824 -.00003585  00000-0 -21124-4 0  9991","BSTAR":"-0.00002112400000","ARG_OF_PERICENTER":"87.4620","ECCENTRICITY":"0.00013230","EPOCH":"2022-10-17T22:00:00.999936","INCLINATION":"53.2138","ELEMENT_SET_NO":"999","OBJECT_TYPE":"PAYLOAD","CLASSIFICATION_TYPE":"U","OBJECT_NAME":"STARLINK-4760","REV_AT_EPOCH":"130","MEAN_MOTION":"15.73216186","APOAPSIS":"350.604","PERIOD":"91.532","LAUNCH_DATE":"2022-09-19","MEAN_ELEMENT_THEORY":"SGP4","RCS_SIZE":"LARGE","PERIAPSIS":"348.824","MEAN_MOTION_DDOT":"0.0000000000000","NORAD_CAT_ID":"53828","TLE_LINE2":"2 53828  53.2138 115.9065 0001323  87.4620  52.8043 15.73216186  1309","GP_ID":"215451965","MEAN_ANOMALY":"52.8043","REF_FRAME":"TEME","OBJECT_ID":"2022-114L"},{"FILE":"3620294","TIME_SYSTEM":"UTC","CENTER_NAME":"EARTH","EPHEMERIS_TYPE":"0","SITE":"AFETR","MEAN_MOTION_DOT":"-0.00013486","SEMIMAJOR_AXIS":"6727.871","RA_OF_ASC_NODE":"115.9153","DECAY_DATE":null,"ARG_OF_PERICENTER":"53.1761","INCLINATION":"53.2148","EPOCH":"2022-10-17T22:00:00.999936","ECCENTRICITY":"0.00016080","ELEMENT_SET_NO":"999","TLE_LINE1":"1 53829U 22114M   22290.91667824 -.00013486  00000-0 -91781-4 0  9999","COUNTRY_CODE":"US","BSTAR":"-0.00009178100000","CLASSIFICATION_TYPE":"U","OBJECT_TYPE":"PAYLOAD","REV_AT_EPOCH":"130","OBJECT_NAME":"STARLINK-4759","PERIOD":"91.533","MEAN_MOTION":"15.73208567","APOAPSIS":"350.818","MEAN_ELEMENT_THEORY":"SGP4","RCS_SIZE":"LARGE","LAUNCH_DATE":"2022-09-19","MEAN_MOTION_DDOT":"0.0000000000000","NORAD_CAT_ID":"53829","PERIAPSIS":"348.654","REF_FRAME":"TEME","OBJECT_ID":"2022-114M","TLE_LINE2":"2 53829  53.2148 115.9153 0001608  53.1761  85.3178 15.73208567  1305","GP_ID":"215452528","MEAN_ANOMALY":"85.3178"}];
